FENGYUN 1C DEB          
1 31497U 99025BWL 17345.91970174  .00000082  00000-0  37249-4 0  9996
2 31497  98.4215  19.3402 0177293  93.7196  27.1790 14.35768790555896
